[{"OBJECT_NAME":"STARLINK-2363","OBJECT_ID":"2021-021AV","EPOCH":"2026-03-10T00:00:02.999808","MEAN_MOTION":15.64981779,"ECCENTRICITY":0.00011599,"INCLINATION":53.1594,"RA_OF_ASC_NODE":250.7661,"ARG_OF_PERICENTER":51.6723,"MEAN_ANOMALY":183.7852,"EPHEMERIS_TYPE":0,"CLASSIFICATION_TYPE":"U","NORAD_CAT_ID":47903,"ELEMENT_SET_NO":999,"REV_AT_EPOCH":582,"BSTAR":0.00044293637,"MEAN_MOTION_DOT":0.00043966,"MEAN_MOTION_DDOT":0},{"OBJECT_NAME":"FAST","OBJECT_ID":"1996-049A","EPOCH":"2026-03-09T22:28:35.624352","MEAN_MOTION":11.82117041,"ECCENTRICITY":0.17389396,"INCLINATION":82.9442,"RA_OF_ASC_NODE":97.3438,"ARG_OF_PERICENTER":315.8434,"MEAN_ANOMALY":31.5935,"EPHEMERIS_TYPE":0,"CLASSIFICATION_TYPE":"U","NORAD_CAT_ID":24285,"ELEMENT_SET_NO":999,"REV_AT_EPOCH":22093,"BSTAR":0.00058191674,"MEAN_MOTION_DOT":7.541e-5,"MEAN_MOTION_DDOT":0}]
